STARLINK-31177          
1 58873U 24019W   26068.54647456  .00000738  00000+0  36328-4 0  9993
2 58873  43.0012 249.4546 0001111 231.4726 128.6026 15.27575150119066
FLOCK 4G-2              
1 62661U 25009BE  26068.66207492  .00013752  00000+0  51068-3 0  9995
2 62661  97.4044 151.2221 0003181 329.2677  30.8376 15.27675260121321
