[{"OBJECT_NAME":"STARLINK-31177","OBJECT_ID":"2024-019W","EPOCH":"2026-03-09T13:06:55.401984","MEAN_MOTION":15.2757515,"ECCENTRICITY":0.0001111,"INCLINATION":43.0012,"RA_OF_ASC_NODE":249.4546,"ARG_OF_PERICENTER":231.4726,"MEAN_ANOMALY":128.6026,"EPHEMERIS_TYPE":0,"CLASSIFICATION_TYPE":"U","NORAD_CAT_ID":58873,"ELEMENT_SET_NO":999,"REV_AT_EPOCH":11906,"BSTAR":3.6328e-5,"MEAN_MOTION_DOT":7.38e-6,"MEAN_MOTION_DDOT":0},{"OBJECT_NAME":"FLOCK 4G-2","OBJECT_ID":"2025-009BE","EPOCH":"2026-03-09T15:53:23.273952","MEAN_MOTION":15.2767526,"ECCENTRICITY":0.00031811,"INCLINATION":97.4044,"RA_OF_ASC_NODE":151.2221,"ARG_OF_PERICENTER":329.2677,"MEAN_ANOMALY":30.8376,"EPHEMERIS_TYPE":0,"CLASSIFICATION_TYPE":"U","NORAD_CAT_ID":62661,"ELEMENT_SET_NO":999,"REV_AT_EPOCH":12132,"BSTAR":0.00051068481,"MEAN_MOTION_DOT":0.00013752,"MEAN_MOTION_DDOT":0}]
